{
    "links": {
        "self": "http://www.neowsapp.com/rest/v1/neo/3755502?api_key=iIulBulltgU6a56xZRHN4H3l9WmuAYTsLGpBGhQ2"
    },
    "id": "3755502",
    "neo_reference_id": "3755502",
    "name": "(2016 NC39)",
    "designation": "2016 NC39",
    "nasa_jpl_url": "http://ssd.jpl.nasa.gov/sbdb.cgi?sstr=3755502",
    "absolute_magnitude_h": 24.2,
    "estimated_diameter": {
        "kilometers": {
            "estimated_diameter_min": 0.0384197891,
            "estimated_diameter_max": 0.0859092601
        },
        "meters": {
            "estimated_diameter_min": 38.4197891064,
            "estimated_diameter_max": 85.9092601232
        },
        "miles": {
            "estimated_diameter_min": 0.0238729428,
            "estimated_diameter_max": 0.0533815229
        },
        "feet": {
            "estimated_diameter_min": 126.0491808919,
            "estimated_diameter_max": 281.8545369825
        }
    },
    "is_potentially_hazardous_asteroid": false,
    "close_approach_data": [
        {
            "close_approach_date": "2016-07-19",
            "close_approach_date_full": "2016-Jul-19 13:32",
            "epoch_date_close_approach": 1468935120000,
            "relative_velocity": {
                "kilometers_per_second": "7.9476653621",
                "kilometers_per_hour": "28611.5953036444",
                "miles_per_hour": "17778.1326485339"
            },
            "miss_distance": {
                "astronomical": "0.0846341493",
                "lunar": "32.9226840777",
                "kilometers": "12661088.464541991",
                "miles": "7867235.5633058358"
            },
            "orbiting_body": "Earth"
        },
        {
            "close_approach_date": "2186-06-18",
            "close_approach_date_full": "2186-Jun-18 16:20",
            "epoch_date_close_approach": 6830929200000,
            "relative_velocity": {
                "kilometers_per_second": "16.0578993922",
                "kilometers_per_hour": "57808.4378120273",
                "miles_per_hour": "35919.9151504788"
            },
            "miss_distance": {
                "astronomical": "0.402741221",
                "lunar": "156.666334969",
                "kilometers": "60249228.82279927",
                "miles": "37437134.807479126"
            },
            "orbiting_body": "Earth"
        }
    ],
    "orbital_data": {
        "orbit_id": "7",
        "orbit_determination_date": "2017-04-06 08:24:57",
        "first_observation_date": "2016-07-14",
        "last_observation_date": "2016-08-30",
        "data_arc_in_days": 47,
        "observations_used": 41,
        "orbit_uncertainty": "7",
        "minimum_orbit_intersection": ".0789867",
        "jupiter_tisserand_invariant": "3.526",
        "epoch_osculation": "2459000.5",
        "eccentricity": ".4902132260048659",
        "semi_major_axis": "2.146532249413814",
        "inclination": "10.33978756410656",
        "ascending_node_longitude": "121.9771389959761",
        "orbital_period": "1148.694531077234",
        "perihelion_distance": "1.094273750705187",
        "perihelion_argument": "177.2211577296399",
        "aphelion_distance": "3.198790748122442",
        "perihelion_time": "2458738.141237101077",
        "mean_anomaly": "82.22303849138964",
        "mean_motion": ".3133992460662242",
        "equinox": "J2000",
        "orbit_class": {
            "orbit_class_type": "AMO",
            "orbit_class_description": "Near-Earth asteroid orbits similar to that of 1221 Amor",
            "orbit_class_range": "1.017 AU < q (perihelion) < 1.3 AU"
        }
    },
    "is_sentry_object": false
}